[{"OBJECT_NAME":"STARLINK-3327","OBJECT_ID":"2022-001S","EPOCH":"2026-03-09T12:05:46.759488","MEAN_MOTION":15.08832182,"ECCENTRICITY":0.00011989,"INCLINATION":53.2163,"RA_OF_ASC_NODE":169.9554,"ARG_OF_PERICENTER":79.0634,"MEAN_ANOMALY":281.0493,"EPHEMERIS_TYPE":0,"CLASSIFICATION_TYPE":"U","NORAD_CAT_ID":50819,"ELEMENT_SET_NO":999,"REV_AT_EPOCH":23038,"BSTAR":-5.7204801e-5,"MEAN_MOTION_DOT":-1.198e-5,"MEAN_MOTION_DDOT":0},{"OBJECT_NAME":"H-2A R\/B","OBJECT_ID":"2025-141B","EPOCH":"2026-03-09T20:50:08.593728","MEAN_MOTION":14.90469893,"ECCENTRICITY":0.00923902,"INCLINATION":98.076,"RA_OF_ASC_NODE":17.3096,"ARG_OF_PERICENTER":151.0716,"MEAN_ANOMALY":209.5668,"EPHEMERIS_TYPE":0,"CLASSIFICATION_TYPE":"U","NORAD_CAT_ID":64695,"ELEMENT_SET_NO":999,"REV_AT_EPOCH":3783,"BSTAR":0.00033350933,"MEAN_MOTION_DOT":3.464e-5,"MEAN_MOTION_DDOT":0}]
